{
    "links": {
        "self": "http://www.neowsapp.com/rest/v1/neo/3551328?api_key=iIulBulltgU6a56xZRHN4H3l9WmuAYTsLGpBGhQ2"
    },
    "id": "3551328",
    "neo_reference_id": "3551328",
    "name": "(2010 VA99)",
    "designation": "2010 VA99",
    "nasa_jpl_url": "http://ssd.jpl.nasa.gov/sbdb.cgi?sstr=3551328",
    "absolute_magnitude_h": 22.9,
    "estimated_diameter": {
        "kilometers": {
            "estimated_diameter_min": 0.0699125232,
            "estimated_diameter_max": 0.1563291544
        },
        "meters": {
            "estimated_diameter_min": 69.9125232246,
            "estimated_diameter_max": 156.3291544087
        },
        "miles": {
            "estimated_diameter_min": 0.0434416145,
            "estimated_diameter_max": 0.097138403
        },
        "feet": {
            "estimated_diameter_min": 229.3718026961,
            "estimated_diameter_max": 512.8909429502
        }
    },
    "is_potentially_hazardous_asteroid": false,
    "close_approach_data": [
        {
            "close_approach_date": "2010-11-13",
            "close_approach_date_full": "2010-Nov-13 17:44",
            "epoch_date_close_approach": 1289670240000,
            "relative_velocity": {
                "kilometers_per_second": "22.360552159",
                "kilometers_per_hour": "80497.9877722416",
                "miles_per_hour": "50018.3191243687"
            },
            "miss_distance": {
                "astronomical": "0.0561371481",
                "lunar": "21.8373506109",
                "kilometers": "8397997.783634547",
                "miles": "5218273.8481768686"
            },
            "orbiting_body": "Earth"
        },
        {
            "close_approach_date": "2011-05-01",
            "close_approach_date_full": "2011-May-01 12:02",
            "epoch_date_close_approach": 1304251320000,
            "relative_velocity": {
                "kilometers_per_second": "18.0733323367",
                "kilometers_per_hour": "65063.9964121286",
                "miles_per_hour": "40428.2371039696"
            },
            "miss_distance": {
                "astronomical": "0.4927044051",
                "lunar": "191.6620135839",
                "kilometers": "73707529.542577137",
                "miles": "45799735.0958210106"
            },
            "orbiting_body": "Earth"
        }
    ],
    "orbital_data": {
        "orbit_id": "7",
        "orbit_determination_date": "2017-04-06 08:55:45",
        "first_observation_date": "2010-11-11",
        "last_observation_date": "2010-11-13",
        "data_arc_in_days": 2,
        "observations_used": 14,
        "orbit_uncertainty": "9",
        "minimum_orbit_intersection": ".0409057",
        "jupiter_tisserand_invariant": "4.376",
        "epoch_osculation": "2455512.5",
        "eccentricity": ".3966778535308187",
        "semi_major_axis": "1.443296484184594",
        "inclination": "37.1722952379075",
        "ascending_node_longitude": "231.2572805584901",
        "orbital_period": "633.3324746622985",
        "perihelion_distance": ".8707727328296724",
        "perihelion_argument": "243.8257012475811",
        "aphelion_distance": "2.015820235539517",
        "perihelion_time": "2455562.106995109155",
        "mean_anomaly": "331.8023013918271",
        "mean_motion": ".568421823295824",
        "equinox": "J2000",
        "orbit_class": {
            "orbit_class_type": "APO",
            "orbit_class_description": "Near-Earth asteroid orbits which cross the Earth’s orbit similar to that of 1862 Apollo",
            "orbit_class_range": "a (semi-major axis) > 1.0 AU; q (perihelion) < 1.017 AU"
        }
    },
    "is_sentry_object": false
}